SHIYAN-33
1 68405U 26064A   26107.89602130  .00003699  00000+0  15830-3 0  9992
2 68405  97.4644 183.7293 0015014 153.3188 206.8825 15.23350388  3318
LPNTSAT-001 (IOD-1)
1 68408U 26065A   26107.64644824  .00001734  00000+0  87535-4 0  9995
2 68408  97.4099 349.4201 0016122 210.2902 149.7402 15.18333868  3070
LPNTSAT-002 (IOD-2)
1 68409U 26065B   26107.64585017  .00004071  00000+0  20054-3 0  9993
2 68409  97.4087 349.4181 0013259 204.5317 155.5288 15.18449680  3054
XINZHENGCHENG-01
1 68412U 26066A   26107.92323157  .00000366  00000+0  35959-4 0  9998
2 68412  84.9627 266.0842 0027597 102.5835 257.8478 14.88352776  2768
TRANSPORTER-16 OBJECT A
1 68416U 26067A   26107.81943879  .00005196  00000+0  25381-3 0  9993
2 68416  97.4505  67.2087 0004046 107.6321 252.5355 15.18682962  2783
JACK-002
1 68417U 26067B   26107.82014455  .00004920  00000+0  24097-3 0  9991
2 68417  97.4526  67.2120 0003892 109.6101 250.5554 15.18618492  2787
OPTISAT
1 68418U 26067C   26107.82099188  .00003240  00000+0  16026-3 0  9995
2 68418  97.4543  67.2154 0003854 121.0306 239.1307 15.18519250  2788
TRANSPORTER-16 OBJECT D
1 68419U 26067D   26107.82084407  .00001960  00000+0  98232-4 0  9991
2 68419  97.4500  67.2061 0003430 101.1674 258.9946 15.18529535  2781
ERMIS-2
1 68420U 26067E   26107.82054536  .00007174  00000+0  34959-3 0  9991
2 68420  97.4448  67.1953 0003630  91.8754 268.2896 15.18633539  2787
TRANSPORTER-16 OBJECT F
1 68421U 26067F   26107.82293218  .00003173  00000+0  15777-3 0  9996
2 68421  97.4475  67.1980 0002935  93.6919 266.4651 15.18349018  2783
TRANSPORTER-16 OBJECT G
1 68422U 26067G   26107.82332014  .00003643  00000+0  18082-3 0  9999
2 68422  97.4441  67.1897 0002848  89.8080 270.3480 15.18321567  2786
TRANSPORTER-16 OBJECT H
1 68423U 26067H   26107.82398045  .00003853  00000+0  19130-3 0  9994
2 68423  97.4463  67.1936 0002556 100.5629 259.5893 15.18272825  2780
2026-066C
1 68414U 26066C   26107.92167278  .00000792  00000+0  81429-4 0  9996
2 68414  84.9626 266.0827 0028195 103.3727 257.0643 14.88515580  2766
2026-066D
1 68415U 26066D   26107.92254684  .00001212  00000+0  12656-3 0  9998
2 68415  84.9626 266.0835 0027594 103.1410 257.2895 14.88433437  2766
