[
  {
    "OBJECT_NAME": "SHIYAN-33",
    "OBJECT_ID": "2026-064A",
    "EPOCH": "2026-04-17T21:30:16.240320",
    "MEAN_MOTION": 15.23350388,
    "ECCENTRICITY": 0.00150145,
    "INCLINATION": 97.4644,
    "RA_OF_ASC_NODE": 183.7293,
    "ARG_OF_PERICENTER": 153.3188,
    "MEAN_ANOMALY": 206.8825,
    "EPHEMERIS_TYPE": 0,
    "CLASSIFICATION_TYPE": "U",
    "NORAD_CAT_ID": 68405,
    "ELEMENT_SET_NO": 999,
    "REV_AT_EPOCH": 331,
    "BSTAR": 0.00015829928,
    "MEAN_MOTION_DOT": 3.699e-05,
    "MEAN_MOTION_DDOT": 0
  },
  {
    "OBJECT_NAME": "LPNTSAT-001 (IOD-1)",
    "OBJECT_ID": "2026-065A",
    "EPOCH": "2026-04-17T15:30:53.127936",
    "MEAN_MOTION": 15.18333868,
    "ECCENTRICITY": 0.00161226,
    "INCLINATION": 97.4099,
    "RA_OF_ASC_NODE": 349.4201,
    "ARG_OF_PERICENTER": 210.2902,
    "MEAN_ANOMALY": 149.7402,
    "EPHEMERIS_TYPE": 0,
    "CLASSIFICATION_TYPE": "U",
    "NORAD_CAT_ID": 68408,
    "ELEMENT_SET_NO": 999,
    "REV_AT_EPOCH": 307,
    "BSTAR": 8.7535433e-05,
    "MEAN_MOTION_DOT": 1.734e-05,
    "MEAN_MOTION_DDOT": 0
  },
  {
    "OBJECT_NAME": "LPNTSAT-002 (IOD-2)",
    "OBJECT_ID": "2026-065B",
    "EPOCH": "2026-04-17T15:30:01.454688",
    "MEAN_MOTION": 15.1844968,
    "ECCENTRICITY": 0.00132596,
    "INCLINATION": 97.4087,
    "RA_OF_ASC_NODE": 349.4181,
    "ARG_OF_PERICENTER": 204.5317,
    "MEAN_ANOMALY": 155.5288,
    "EPHEMERIS_TYPE": 0,
    "CLASSIFICATION_TYPE": "U",
    "NORAD_CAT_ID": 68409,
    "ELEMENT_SET_NO": 999,
    "REV_AT_EPOCH": 305,
    "BSTAR": 0.00020053886,
    "MEAN_MOTION_DOT": 4.071e-05,
    "MEAN_MOTION_DDOT": 0
  },
  {
    "OBJECT_NAME": "XINZHENGCHENG-01",
    "OBJECT_ID": "2026-066A",
    "EPOCH": "2026-04-17T22:09:27.207648",
    "MEAN_MOTION": 14.88352776,
    "ECCENTRICITY": 0.00275977,
    "INCLINATION": 84.9627,
    "RA_OF_ASC_NODE": 266.0842,
    "ARG_OF_PERICENTER": 102.5835,
    "MEAN_ANOMALY": 257.8478,
    "EPHEMERIS_TYPE": 0,
    "CLASSIFICATION_TYPE": "U",
    "NORAD_CAT_ID": 68412,
    "ELEMENT_SET_NO": 999,
    "REV_AT_EPOCH": 276,
    "BSTAR": 3.5958668e-05,
    "MEAN_MOTION_DOT": 3.66e-06,
    "MEAN_MOTION_DDOT": 0
  },
  {
    "OBJECT_NAME": "2026-066C",
    "OBJECT_ID": "2026-066C",
    "EPOCH": "2026-04-17T22:07:12.528192",
    "MEAN_MOTION": 14.8851558,
    "ECCENTRICITY": 0.0028195,
    "INCLINATION": 84.9626,
    "RA_OF_ASC_NODE": 266.0827,
    "ARG_OF_PERICENTER": 103.3727,
    "MEAN_ANOMALY": 257.0643,
    "EPHEMERIS_TYPE": 0,
    "CLASSIFICATION_TYPE": "U",
    "NORAD_CAT_ID": 68414,
    "ELEMENT_SET_NO": 999,
    "REV_AT_EPOCH": 276,
    "BSTAR": 8.1428532e-05,
    "MEAN_MOTION_DOT": 7.92e-06,
    "MEAN_MOTION_DDOT": 0
  },
  {
    "OBJECT_NAME": "2026-066D",
    "OBJECT_ID": "2026-066D",
    "EPOCH": "2026-04-17T22:08:28.046976",
    "MEAN_MOTION": 14.88433437,
    "ECCENTRICITY": 0.00275949,
    "INCLINATION": 84.9626,
    "RA_OF_ASC_NODE": 266.0835,
    "ARG_OF_PERICENTER": 103.141,
    "MEAN_ANOMALY": 257.2895,
    "EPHEMERIS_TYPE": 0,
    "CLASSIFICATION_TYPE": "U",
    "NORAD_CAT_ID": 68415,
    "ELEMENT_SET_NO": 999,
    "REV_AT_EPOCH": 276,
    "BSTAR": 0.00012656459,
    "MEAN_MOTION_DOT": 1.212e-05,
    "MEAN_MOTION_DDOT": 0
  },
  {
    "OBJECT_NAME": "TRANSPORTER-16 OBJECT A",
    "OBJECT_ID": "2026-067A",
    "EPOCH": "2026-04-17T19:39:59.511456",
    "MEAN_MOTION": 15.18682962,
    "ECCENTRICITY": 0.0004046,
    "INCLINATION": 97.4505,
    "RA_OF_ASC_NODE": 67.2087,
    "ARG_OF_PERICENTER": 107.6321,
    "MEAN_ANOMALY": 252.5355,
    "EPHEMERIS_TYPE": 0,
    "CLASSIFICATION_TYPE": "U",
    "NORAD_CAT_ID": 68416,
    "ELEMENT_SET_NO": 999,
    "REV_AT_EPOCH": 278,
    "BSTAR": 0.0002538104,
    "MEAN_MOTION_DOT": 5.196e-05,
    "MEAN_MOTION_DDOT": 0
  },
  {
    "OBJECT_NAME": "JACK-002",
    "OBJECT_ID": "2026-067B",
    "EPOCH": "2026-04-17T19:41:00.489120",
    "MEAN_MOTION": 15.18618492,
    "ECCENTRICITY": 0.00038926,
    "INCLINATION": 97.4526,
    "RA_OF_ASC_NODE": 67.212,
    "ARG_OF_PERICENTER": 109.6101,
    "MEAN_ANOMALY": 250.5554,
    "EPHEMERIS_TYPE": 0,
    "CLASSIFICATION_TYPE": "U",
    "NORAD_CAT_ID": 68417,
    "ELEMENT_SET_NO": 999,
    "REV_AT_EPOCH": 278,
    "BSTAR": 0.00024097368,
    "MEAN_MOTION_DOT": 4.92e-05,
    "MEAN_MOTION_DDOT": 0
  },
  {
    "OBJECT_NAME": "OPTISAT",
    "OBJECT_ID": "2026-067C",
    "EPOCH": "2026-04-17T19:42:13.698432",
    "MEAN_MOTION": 15.1851925,
    "ECCENTRICITY": 0.00038541,
    "INCLINATION": 97.4543,
    "RA_OF_ASC_NODE": 67.2154,
    "ARG_OF_PERICENTER": 121.0306,
    "MEAN_ANOMALY": 239.1307,
    "EPHEMERIS_TYPE": 0,
    "CLASSIFICATION_TYPE": "U",
    "NORAD_CAT_ID": 68418,
    "ELEMENT_SET_NO": 999,
    "REV_AT_EPOCH": 278,
    "BSTAR": 0.00016026295,
    "MEAN_MOTION_DOT": 3.24e-05,
    "MEAN_MOTION_DDOT": 0
  },
  {
    "OBJECT_NAME": "TRANSPORTER-16 OBJECT D",
    "OBJECT_ID": "2026-067D",
    "EPOCH": "2026-04-17T19:42:00.927648",
    "MEAN_MOTION": 15.18529535,
    "ECCENTRICITY": 0.00034302,
    "INCLINATION": 97.45,
    "RA_OF_ASC_NODE": 67.2061,
    "ARG_OF_PERICENTER": 101.1674,
    "MEAN_ANOMALY": 258.9946,
    "EPHEMERIS_TYPE": 0,
    "CLASSIFICATION_TYPE": "U",
    "NORAD_CAT_ID": 68419,
    "ELEMENT_SET_NO": 999,
    "REV_AT_EPOCH": 278,
    "BSTAR": 9.8232353e-05,
    "MEAN_MOTION_DOT": 1.96e-05,
    "MEAN_MOTION_DDOT": 0
  },
  {
    "OBJECT_NAME": "ERMIS-2",
    "OBJECT_ID": "2026-067E",
    "EPOCH": "2026-04-17T19:41:35.119104",
    "MEAN_MOTION": 15.18633539,
    "ECCENTRICITY": 0.00036304,
    "INCLINATION": 97.4448,
    "RA_OF_ASC_NODE": 67.1953,
    "ARG_OF_PERICENTER": 91.8754,
    "MEAN_ANOMALY": 268.2896,
    "EPHEMERIS_TYPE": 0,
    "CLASSIFICATION_TYPE": "U",
    "NORAD_CAT_ID": 68420,
    "ELEMENT_SET_NO": 999,
    "REV_AT_EPOCH": 278,
    "BSTAR": 0.00034959337,
    "MEAN_MOTION_DOT": 7.174e-05,
    "MEAN_MOTION_DDOT": 0
  },
  {
    "OBJECT_NAME": "TRANSPORTER-16 OBJECT F",
    "OBJECT_ID": "2026-067F",
    "EPOCH": "2026-04-17T19:45:01.340352",
    "MEAN_MOTION": 15.18349018,
    "ECCENTRICITY": 0.00029359,
    "INCLINATION": 97.4475,
    "RA_OF_ASC_NODE": 67.198,
    "ARG_OF_PERICENTER": 93.6919,
    "MEAN_ANOMALY": 266.4651,
    "EPHEMERIS_TYPE": 0,
    "CLASSIFICATION_TYPE": "U",
    "NORAD_CAT_ID": 68421,
    "ELEMENT_SET_NO": 999,
    "REV_AT_EPOCH": 278,
    "BSTAR": 0.00015777427,
    "MEAN_MOTION_DOT": 3.173e-05,
    "MEAN_MOTION_DDOT": 0
  },
  {
    "OBJECT_NAME": "TRANSPORTER-16 OBJECT G",
    "OBJECT_ID": "2026-067G",
    "EPOCH": "2026-04-17T19:45:34.860096",
    "MEAN_MOTION": 15.18321567,
    "ECCENTRICITY": 0.00028481,
    "INCLINATION": 97.4441,
    "RA_OF_ASC_NODE": 67.1897,
    "ARG_OF_PERICENTER": 89.808,
    "MEAN_ANOMALY": 270.348,
    "EPHEMERIS_TYPE": 0,
    "CLASSIFICATION_TYPE": "U",
    "NORAD_CAT_ID": 68422,
    "ELEMENT_SET_NO": 999,
    "REV_AT_EPOCH": 278,
    "BSTAR": 0.00018081754,
    "MEAN_MOTION_DOT": 3.643e-05,
    "MEAN_MOTION_DDOT": 0
  },
  {
    "OBJECT_NAME": "TRANSPORTER-16 OBJECT H",
    "OBJECT_ID": "2026-067H",
    "EPOCH": "2026-04-17T19:46:31.910880",
    "MEAN_MOTION": 15.18272825,
    "ECCENTRICITY": 0.00025564,
    "INCLINATION": 97.4463,
    "RA_OF_ASC_NODE": 67.1936,
    "ARG_OF_PERICENTER": 100.5629,
    "MEAN_ANOMALY": 259.5893,
    "EPHEMERIS_TYPE": 0,
    "CLASSIFICATION_TYPE": "U",
    "NORAD_CAT_ID": 68423,
    "ELEMENT_SET_NO": 999,
    "REV_AT_EPOCH": 278,
    "BSTAR": 0.00019129889,
    "MEAN_MOTION_DOT": 3.853e-05,
    "MEAN_MOTION_DDOT": 0
  }
]